OBJECT_NAME,OBJECT_ID,EPOCH,MEAN_MOTION,ECCENTRICITY,INCLINATION,RA_OF_ASC_NODE,ARG_OF_PERICENTER,MEAN_ANOMALY,EPHEMERIS_TYPE,CLASSIFICATION_TYPE,NORAD_CAT_ID,ELEMENT_SET_NO,REV_AT_EPOCH,BSTAR,MEAN_MOTION_DOT,MEAN_MOTION_DDOT
OSCAR 7 (AO-7),1974-089B,2026-06-27T23:42:42.038784,12.53698275,.00126464,101.9899,192.3471,110.1261,277.5326,0,U,7530,999,36187,.12427995E-3,-.26E-6,0
PHASE 3B (AO-10),1983-058B,2026-06-26T14:17:11.121504,2.05872938,.60076223,25.9202,218.0092,118.2548,314.1516,0,U,14129,999,29568,0,-.217E-5,0
UOSAT 2 (UO-11),1984-021B,2026-06-27T21:26:30.867648,14.90809024,.00085431,97.8063,144.3487,139.5335,220.6520,0,U,14781,999,25872,.12960065E-3,.122E-4,0
LUSAT (LO-19),1990-005G,2026-06-27T18:52:59.549376,14.34126150,.00117437,98.8846,200.8844,169.7641,190.3784,0,U,20442,999,90391,.56853408E-4,.112E-5,0
EYESAT A (AO-27),1993-061C,2026-06-27T21:47:29.981760,14.30944890,.00094629,98.6877,246.3175,72.1559,288.0655,0,U,22825,999,70853,.49213588E-4,.85E-6,0
ITAMSAT (IO-26),1993-061D,2026-06-27T22:53:54.435264,14.31372077,.00098383,98.6824,246.2821,56.9186,303.2940,0,U,22826,999,70885,.49466516E-4,.87E-6,0
RADIO ROSTO (RS15),1994-085A,2026-06-27T20:20:11.988672,11.27583364,.01563093,64.8183,285.9761,1.9085,358.2405,0,U,23439,999,29710,-.35730795E-3,-.55E-6,0
JAS-2 (FO-29),1996-046B,2026-06-27T19:25:59.431296,13.53274813,.03508845,98.5230,26.2261,68.9497,294.8790,0,U,24278,999,47460,.15567853E-4,-.17E-6,0
TECHSAT 1B (GO-32),1998-043D,2026-06-27T22:50:56.923872,14.24430403,.00015875,99.0072,171.9824,143.0140,217.1148,0,U,25397,999,45286,.43505056E-4,.54E-6,0
ISS (ZARYA),1998-067A,2026-06-27T16:52:15.690432,15.49456407,.00042612,51.6321,248.0384,239.2483,120.8086,0,U,25544,999,57338,.11337238E-3,.59E-4,0
PCSAT (NO-44),2001-043C,2026-06-27T20:17:43.874880,14.31959358,.00060363,67.0492,216.7043,265.2974,94.7439,0,U,26931,999,29197,.63652721E-4,.88E-6,0
SAUDISAT 1C (SO-50),2002-058C,2026-06-27T21:02:49.685280,14.83068196,.00750105,64.5520,95.9116,260.4752,98.7871,0,U,27607,999,26604,.12482399E-3,.912E-5,0
CUTE-1 (CO-55),2003-031E,2026-06-27T20:31:42.296160,14.24341870,.00101852,98.6736,187.2801,148.1888,211.9908,0,U,27844,999,19319,.13739642E-3,.274E-5,0
CUBESAT XI-IV (CO-57),2003-031J,2026-06-27T13:37:57.919008,14.23626048,.00096614,98.6767,186.7007,166.6702,193.4734,0,U,27848,999,19285,.12175343E-3,.234E-5,0
MOZHAETS 4 (RS22),2003-042A,2026-06-27T23:01:52.963392,14.73485639,.00100735,98.3469,3.6232,231.0982,286.3646,0,U,27939,999,21713,.164721E-3,.1016E-4,0
CUBESAT XI-V,2005-043F,2026-06-27T09:22:31.947456,14.72657931,.00143504,98.2993,334.2271,168.3542,191.8000,0,U,28895,999,10325,.23760396E-3,.1463E-4,0
CUTE-1.7+APD II (CO-65),2008-021C,2026-06-27T22:06:35.656128,15.09550491,.00086557,97.8271,160.5636,5.1197,355.0118,0,U,32785,999,98681,.29155108E-3,.4615E-4,0
SEEDS II (CO-66),2008-021J,2026-06-27T23:19:01.119072,15.33110926,.00007456,97.7514,177.3863,205.3890,154.7314,0,U,32791,999,98894,.55169448E-3,.17585E-3,0
YUBILEINY (RS30),2008-025A,2026-06-27T21:10:49.885248,12.43179960,.0018538,82.5044,348.7860,289.2394,70.6680,0,U,32953,999,82102,-.68248527E-4,0,0
KKS-1 (KISEKI),2009-002H,2026-06-27T21:59:17.239200,14.83149708,.0006405,98.1186,101.5285,253.2559,106.7951,0,U,33499,999,93778,.16492936E-3,.129E-4,0
SWISSCUBE,2009-051B,2026-06-27T23:29:06.641376,14.62500860,.00067468,98.4028,87.0546,167.8214,192.3151,0,U,35932,999,89073,.19746654E-3,.952E-5,0
BEESAT-1,2009-051C,2026-06-27T17:16:30.592992,14.61736125,.0004926,98.3956,86.4047,179.9707,180.1494,0,U,35933,999,89072,.1646563E-3,.772E-5,0
ITUPSAT1,2009-051E,2026-06-27T17:16:40.643040,14.60455093,.00068213,98.4041,85.5856,196.6461,163.4516,0,U,35935,999,89027,.15533885E-3,.704E-5,0
XIWANG-1 (HOPE-1),2009-072B,2026-06-27T23:02:03.041952,13.16438546,.00070861,100.4023,132.6200,205.0002,155.0769,0,U,36122,999,79442,-.79645671E-3,-.349E-5,0
O/OREOS (USA 219),2010-062C,2026-06-27T18:39:11.314656,14.93787063,.00129539,71.9713,56.3509,40.4272,319.7859,0,U,37224,999,11822,.21433159E-3,.2214E-4,0
JUGNU,2011-058B,2026-06-27T12:34:46.039008,14.13779214,.00184372,19.9596,245.6289,190.0479,199.3763,0,U,37839,999,76049,.71023365E-4,.404E-5,0
SRMSAT,2011-058D,2026-06-27T19:37:19.453728,14.11577638,.00117313,19.9735,355.1269,321.2874,66.8702,0,U,37841,999,75932,.56564008E-4,.369E-5,0
STRAND-1,2013-009E,2026-06-27T18:39:57.206016,14.37169285,.00083245,98.3924,358.7515,191.3030,168.7972,0,U,39090,999,69858,.1073636E-3,.277E-5,0
ZACUBE-1 (TSHEPISOSAT),2013-066B,2026-06-27T22:31:42.267360,15.01245243,.00423,97.8046,141.3307,211.1560,148.7156,0,U,39417,999,68234,.23109544E-3,.2961E-4,0
GOMX-1,2013-066Q,2026-06-27T22:40:08.302656,14.69497612,.01297655,97.6483,18.7286,43.4002,317.7334,0,U,39430,999,67149,.34544549E-3,.228E-4,0
